{
  "type": "FeatureCollection",
  "features": [
    {
      "type": "Feature",
      "properties": {
        "norad_id": 43603,
        "name": "BEIDOU-3 M11 (C25)",
        "group": "beidou",
        "lat": 38.32012787852332,
        "lon": -137.61256738437558,
        "alt_km": 21508.612694159005,
        "timestamp": "2025-12-05T19:30:25.830815+00:00",
        "meta_object_name": "BEIDOU-3 M11 (C25)",
        "meta_object_id": "2018-067B",
        "meta_epoch": "2025-12-04T03:03:44.195904",
        "meta_mean_motion": 1.86227126,
        "meta_eccentricity": 0.0005572,
        "meta_inclination": 54.1804,
        "meta_ra_of_asc_node": 187.6197,
        "meta_arg_of_pericenter": 36.31,
        "meta_mean_anomaly": 323.8191,
        "meta_ephemeris_type": 0,
        "meta_classification_type": "U",
        "meta_norad_cat_id": 43603,
        "meta_element_set_no": 999,
        "meta_rev_at_epoch": 4951,
        "meta_bstar": 0,
        "meta_mean_motion_dot": 1.09e-06,
        "meta_mean_motion_ddot": 0,
        "tle_line1": "1 43603U 18067B   25338.12759486  .00000109  00000+0  00000+0 0  9999",
        "tle_line2": "2 43603  54.1804 187.6197 0005572  36.3100 323.8191  1.86227126 49512"
      },
      "geometry": {
        "type": "Point",
        "coordinates": [
          -137.61256738437558,
          38.32012787852332
        ]
      }
    },
    {
      "type": "Feature",
      "properties": {
        "norad_id": 43622,
        "name": "BEIDOU-3 M13 (C32)",
        "group": "beidou",
        "lat": 54.91922668783964,
        "lon": 139.65663692349327,
        "alt_km": 21533.90793162834,
        "timestamp": "2025-12-05T19:30:25.830830+00:00",
        "meta_object_name": "BEIDOU-3 M13 (C32)",
        "meta_object_id": "2018-072A",
        "meta_epoch": "2025-12-03T13:07:53.541408",
        "meta_mean_motion": 1.86230692,
        "meta_eccentricity": 0.00056735,
        "meta_inclination": 56.4512,
        "meta_ra_of_asc_node": 69.1249,
        "meta_arg_of_pericenter": 298.6305,
        "meta_mean_anomaly": 61.3164,
        "meta_ephemeris_type": 0,
        "meta_classification_type": "U",
        "meta_norad_cat_id": 43622,
        "meta_element_set_no": 999,
        "meta_rev_at_epoch": 4901,
        "meta_bstar": 0,
        "meta_mean_motion_dot": -5e-07,
        "meta_mean_motion_ddot": 0,
        "tle_line1": "1 43622U 18072A   25337.54714747 -.00000050  00000+0  00000+0 0  9998",
        "tle_line2": "2 43622  56.4512  69.1249 0005673 298.6305  61.3164  1.86230692 49019"
      },
      "geometry": {
        "type": "Point",
        "coordinates": [
          139.65663692349327,
          54.91922668783964
        ]
      }
    },
    {
      "type": "Feature",
      "properties": {
        "norad_id": 43623,
        "name": "BEIDOU-3 M14 (C33)",
        "group": "beidou",
        "lat": 8.975581910583287,
        "lon": -116.95478518433455,
        "alt_km": 21535.497067118555,
        "timestamp": "2025-12-05T19:30:25.830841+00:00",
        "meta_object_name": "BEIDOU-3 M14 (C33)",
        "meta_object_id": "2018-072B",
        "meta_epoch": "2025-12-02T08:07:43.843296",
        "meta_mean_motion": 1.86230716,
        "meta_eccentricity": 0.00030503,
        "meta_inclination": 56.4518,
        "meta_ra_of_asc_node": 69.1588,
        "meta_arg_of_pericenter": 335.8375,
        "meta_mean_anomaly": 24.1509,
        "meta_ephemeris_type": 0,
        "meta_classification_type": "U",
        "meta_norad_cat_id": 43623,
        "meta_element_set_no": 999,
        "meta_rev_at_epoch": 4898,
        "meta_bstar": 0,
        "meta_mean_motion_dot": -4.6e-07,
        "meta_mean_motion_ddot": 0,
        "tle_line1": "1 43623U 18072B   25336.33870189 -.00000046  00000+0  00000+0 0  9993",
        "tle_line2": "2 43623  56.4518  69.1588 0003050 335.8375  24.1509  1.86230716 48982"
      },
      "geometry": {
        "type": "Point",
        "coordinates": [
          -116.95478518433455,
          8.975581910583287
        ]
      }
    },
    {
      "type": "Feature",
      "properties": {
        "norad_id": 43647,
        "name": "BEIDOU-3 M16 (C35)",
        "group": "beidou",
        "lat": 46.54148180213825,
        "lon": -3.8636040970733276,
        "alt_km": 21508.603555113514,
        "timestamp": "2025-12-05T19:30:25.830853+00:00",
        "meta_object_name": "BEIDOU-3 M16 (C35)",
        "meta_object_id": "2018-078A",
        "meta_epoch": "2025-12-03T00:48:25.625088",
        "meta_mean_motion": 1.86232114,
        "meta_eccentricity": 0.00069753,
        "meta_inclination": 54.271,
        "meta_ra_of_asc_node": 306.8606,
        "meta_arg_of_pericenter": 18.45,
        "meta_mean_anomaly": 341.5609,
        "meta_ephemeris_type": 0,
        "meta_classification_type": "U",
        "meta_norad_cat_id": 43647,
        "meta_element_set_no": 999,
        "meta_rev_at_epoch": 4850,
        "meta_bstar": 0,
        "meta_mean_motion_dot": -6.5e-07,
        "meta_mean_motion_ddot": 0,
        "tle_line1": "1 43647U 18078A   25337.03362992 -.00000065  00000+0  00000+0 0  9992",
        "tle_line2": "2 43647  54.2710 306.8606 0006975  18.4500 341.5609  1.86232114 48502"
      },
      "geometry": {
        "type": "Point",
        "coordinates": [
          -3.8636040970733276,
          46.54148180213825
        ]
      }
    },
    {
      "type": "Feature",
      "properties": {
        "norad_id": 43648,
        "name": "BEIDOU-3 M15 (C34)",
        "group": "beidou",
        "lat": -18.75378464445885,
        "lon": -67.40009750829485,
        "alt_km": 21522.802252940903,
        "timestamp": "2025-12-05T19:30:25.830864+00:00",
        "meta_object_name": "BEIDOU-3 M15 (C34)",
        "meta_object_id": "2018-078B",
        "meta_epoch": "2025-12-04T18:34:06.240576",
        "meta_mean_motion": 1.86231976,
        "meta_eccentricity": 0.00036768,
        "meta_inclination": 54.2651,
        "meta_ra_of_asc_node": 306.8006,
        "meta_arg_of_pericenter": 17.6668,
        "meta_mean_anomaly": 342.3282,
        "meta_ephemeris_type": 0,
        "meta_classification_type": "U",
        "meta_norad_cat_id": 43648,
        "meta_element_set_no": 999,
        "meta_rev_at_epoch": 4855,
        "meta_bstar": 0,
        "meta_mean_motion_dot": -6.9e-07,
        "meta_mean_motion_ddot": 0,
        "tle_line1": "1 43648U 18078B   25338.77368334 -.00000069  00000+0  00000+0 0  9995",
        "tle_line2": "2 43648  54.2651 306.8006 0003676  17.6668 342.3282  1.86231976 48558"
      },
      "geometry": {
        "type": "Point",
        "coordinates": [
          -67.40009750829485,
          -18.75378464445885
        ]
      }
    },
    {
      "type": "Feature",
      "properties": {
        "norad_id": 43683,
        "name": "BEIDOU-3 G1 (C59)",
        "group": "beidou",
        "lat": 1.8133460192254118,
        "lon": 147.47880242687387,
        "alt_km": 35777.89937800908,
        "timestamp": "2025-12-05T19:30:25.830875+00:00",
        "meta_object_name": "BEIDOU-3 G1 (C59)",
        "meta_object_id": "2018-085A",
        "meta_epoch": "2025-12-05T07:30:56.529792",
        "meta_mean_motion": 1.00273004,
        "meta_eccentricity": 0.00019533,
        "meta_inclination": 2.5878,
        "meta_ra_of_asc_node": 103.1782,
        "meta_arg_of_pericenter": 64.9746,
        "meta_mean_anomaly": 159.0072,
        "meta_ephemeris_type": 0,
        "meta_classification_type": "U",
        "meta_norad_cat_id": 43683,
        "meta_element_set_no": 999,
        "meta_rev_at_epoch": 2611,
        "meta_bstar": 0,
        "meta_mean_motion_dot": -2.66e-06,
        "meta_mean_motion_ddot": 0,
        "tle_line1": "1 43683U 18085A   25339.31315428 -.00000266  00000+0  00000+0 0  9998",
        "tle_line2": "2 43683   2.5878 103.1782 0001953  64.9746 159.0072  1.00273004 26113"
      },
      "geometry": {
        "type": "Point",
        "coordinates": [
          147.47880242687387,
          1.8133460192254118
        ]
      }
    },
    {
      "type": "Feature",
      "properties": {
        "norad_id": 43706,
        "name": "BEIDOU-3 M17 (C36)",
        "group": "beidou",
        "lat": -38.605603085646145,
        "lon": 44.10334289674464,
        "alt_km": 21528.67991430615,
        "timestamp": "2025-12-05T19:30:25.830887+00:00",
        "meta_object_name": "BEIDOU-3 M17 (C36)",
        "meta_object_id": "2018-093A",
        "meta_epoch": "2025-12-03T14:10:37.280064",
        "meta_mean_motion": 1.86228161,
        "meta_eccentricity": 0.00063465,
        "meta_inclination": 54.1727,
        "meta_ra_of_asc_node": 188.9327,
        "meta_arg_of_pericenter": 306.3477,
        "meta_mean_anomaly": 234.3147,
        "meta_ephemeris_type": 0,
        "meta_classification_type": "U",
        "meta_norad_cat_id": 43706,
        "meta_element_set_no": 999,
        "meta_rev_at_epoch": 4789,
        "meta_bstar": 0,
        "meta_mean_motion_dot": 1.14e-06,
        "meta_mean_motion_ddot": 0,
        "tle_line1": "1 43706U 18093A   25337.59070926  .00000114  00000+0  00000+0 0  9993",
        "tle_line2": "2 43706  54.1727 188.9327 0006346 306.3477 234.3147  1.86228161 47892"
      },
      "geometry": {
        "type": "Point",
        "coordinates": [
          44.10334289674464,
          -38.605603085646145
        ]
      }
    }
  ]
}